ION SCV-017             
1 63230U 25052W   26068.71648816  .00006457  00000+0  24539-3 0  9998
2 63230  97.4016 324.7516 0023746  44.9875 315.3282 15.26881798 54851
STARLINK-34133          
1 64143U 25111W   26068.40876509 -.00004555  00000+0 -15610-3 0  9995
2 64143  43.0028  79.1729 0001443 249.8975 110.1722 15.27577729 45429
